<shakemap-data code_version="4.0 GSM" map_version="1">
<earthquake id="25991212010101" lat="-26.0" lon="129.0" mag="5.0" year="2599" month="12" day="12" hour="01" minute="01" second="01" timezone="GMT" depth="5.0" locstring="NT-SA-WA Border Region" created="1568721136"/>
<stationlist created="1568721136">
<station code="OBS_1" name="Unknown (Intensity V)" insttype="Observed" lat="-25.5508" lon="129.0000" source="AU" netid="Intensity" commtype="Intensity" intensity="5.5">
    <comp name="DERIVED">
        <acc value="0.0454"/>
        <vel value="3.0888"/>
    </comp>
</station>
</stationlist>
</shakemap-data>