<shakemap-data code_version="4.0 GSM" map_version="1">
<earthquake id="25991212010101" lat="-26.0" lon="129.0" mag="5.0" year="2599" month="12" day="12" hour="01" minute="01" second="01" timezone="GMT" depth="5.0" locstring="NT-SA-WA Border Region" created="1568721793"/>
<stationlist created="1568721793">
<station code="OBS_1" name="Unknown (Intensity X)" insttype="Observed" lat="-25.9991" lon="128.5003" source="AU" netid="Intensity" commtype="Intensity" intensity="9.5">
    <comp name="DERIVED">
        <acc value="1.0197"/>
        <vel value="123.5299"/>
    </comp>
</station>
<station code="OBS_2" name="Unknown (Intensity X)" insttype="Observed" lat="-26.4492" lon="129.0000" source="AU" netid="Intensity" commtype="Intensity" intensity="9.5">
    <comp name="DERIVED">
        <acc value="1.0197"/>
        <vel value="123.5299"/>
    </comp>
</station>
<station code="OBS_3" name="Unknown (Intensity X)" insttype="Observed" lat="-25.5508" lon="129.0000" source="AU" netid="Intensity" commtype="Intensity" intensity="9.5">
    <comp name="DERIVED">
        <acc value="1.0197"/>
        <vel value="123.5299"/>
    </comp>
</station>
<station code="OBS_4" name="Unknown (Intensity X)" insttype="Observed" lat="-25.9991" lon="129.4997" source="AU" netid="Intensity" commtype="Intensity" intensity="9.5">
    <comp name="DERIVED">
        <acc value="1.0197"/>
        <vel value="123.5299"/>
    </comp>
</station>
</stationlist>
</shakemap-data>