<shakemap-data code_version="4.0 GSM" map_version="1">
<earthquake id="20160520181402" lat="-25.579" lon="129.832" mag="6.1" year="2016" month="05" day="20" hour="18" minute="14" second="02" timezone="GMT" depth="0.0" locstring="Petermann Ranges, NT" created="1522821838"/>
<stationlist created="1522821838">
<station code="OBS_1" name="Unknown (Intensity III)" insttype="Observed" lat="-25.6790" lon="126.6320" source="AU" netid="Intensity" commtype="Intensity" intensity="3.0">
    <comp name="DERIVED">
        <acc value="0.0062"/>
        <vel value="0.2947"/>
    </comp>
</station>
<station code="OBS_2" name="Unknown (Intensity III)" insttype="Observed" lat="-25.2790" lon="127.5320" source="AU" netid="Intensity" commtype="Intensity" intensity="3.0">
    <comp name="DERIVED">
        <acc value="0.0062"/>
        <vel value="0.2947"/>
    </comp>
</station>
<station code="OBS_3" name="Unknown (Intensity III)" insttype="Observed" lat="-25.8790" lon="127.6820" source="AU" netid="Intensity" commtype="Intensity" intensity="3.0">
    <comp name="DERIVED">
        <acc value="0.0062"/>
        <vel value="0.2947"/>
    </comp>
</station>
<station code="OBS_4" name="Unknown (Intensity IV)" insttype="Observed" lat="-26.0790" lon="128.9320" source="AU" netid="Intensity" commtype="Intensity" intensity="4.0">
    <comp name="DERIVED">
        <acc value="0.0276"/>
        <vel value="1.4114"/>
    </comp>
</station>
<station code="OBS_5" name="Unknown (Intensity IV)" insttype="Observed" lat="-26.1290" lon="129.1320" source="AU" netid="Intensity" commtype="Intensity" intensity="4.0">
    <comp name="DERIVED">
        <acc value="0.0276"/>
        <vel value="1.4114"/>
    </comp>
</station>
<station code="OBS_6" name="Unknown (Intensity III)" insttype="Observed" lat="-26.1790" lon="129.1820" source="AU" netid="Intensity" commtype="Intensity" intensity="3.0">
    <comp name="DERIVED">
        <acc value="0.0062"/>
        <vel value="0.2947"/>
    </comp>
</station>
<station code="OBS_7" name="Unknown (Intensity VII)" insttype="Observed" lat="-26.1790" lon="130.1820" source="AU" netid="Intensity" commtype="Intensity" intensity="7.0">
    <comp name="DERIVED">
        <acc value="0.2152"/>
        <vel value="19.9817"/>
    </comp>
</station>
<station code="OBS_8" name="Unknown (Intensity III)" insttype="Observed" lat="-25.2290" lon="130.9820" source="AU" netid="Intensity" commtype="Intensity" intensity="3.2">
    <comp name="DERIVED">
        <acc value="0.0082"/>
        <vel value="0.3918"/>
    </comp>
</station>
<station code="OBS_9" name="Unknown (Intensity IV)" insttype="Observed" lat="-24.2290" lon="131.5320" source="AU" netid="Intensity" commtype="Intensity" intensity="4.0">
    <comp name="DERIVED">
        <acc value="0.0276"/>
        <vel value="1.4114"/>
    </comp>
</station>
<station code="OBS_10" name="Unknown (Intensity VII)" insttype="Observed" lat="-26.7790" lon="132.0320" source="AU" netid="Intensity" commtype="Intensity" intensity="7.0">
    <comp name="DERIVED">
        <acc value="0.2152"/>
        <vel value="19.9817"/>
    </comp>
</station>
<station code="OBS_11" name="Unknown (Intensity VII)" insttype="Observed" lat="-26.4790" lon="132.0320" source="AU" netid="Intensity" commtype="Intensity" intensity="7.0">
    <comp name="DERIVED">
        <acc value="0.2152"/>
        <vel value="19.9817"/>
    </comp>
</station>
<station code="OBS_12" name="Unknown (Intensity II)" insttype="Observed" lat="-26.2790" lon="132.1320" source="AU" netid="Intensity" commtype="Intensity" intensity="2.0">
    <comp name="DERIVED">
        <acc value="0.0014"/>
        <vel value="0.0615"/>
    </comp>
</station>
<station code="OBS_13" name="Unknown (Intensity III)" insttype="Observed" lat="-25.1790" lon="133.1820" source="AU" netid="Intensity" commtype="Intensity" intensity="3.0">
    <comp name="DERIVED">
        <acc value="0.0062"/>
        <vel value="0.2947"/>
    </comp>
</station>
<station code="OBS_14" name="Unknown (Intensity II)" insttype="Observed" lat="-23.7290" lon="133.8820" source="AU" netid="Intensity" commtype="Intensity" intensity="2.0">
    <comp name="DERIVED">
        <acc value="0.0014"/>
        <vel value="0.0615"/>
    </comp>
</station>
<station code="OBS_15" name="Unknown (Intensity IV)" insttype="Observed" lat="-23.6790" lon="133.8820" source="AU" netid="Intensity" commtype="Intensity" intensity="3.5">
    <comp name="DERIVED">
        <acc value="0.0131"/>
        <vel value="0.6449"/>
    </comp>
</station>
<station code="OBS_16" name="Unknown (Intensity II)" insttype="Observed" lat="-28.9790" lon="134.7320" source="AU" netid="Intensity" commtype="Intensity" intensity="2.0">
    <comp name="DERIVED">
        <acc value="0.0014"/>
        <vel value="0.0615"/>
    </comp>
</station>
</stationlist>
</shakemap-data>